CTC2_L_00042001-01
1 30939U 25030CM  26070.40842593  .00000000  00000+0  00000-0 0  9993
2 30939  85.0000   0.0000 0000000   0.0000   0.0000 15.59190035    18
CTC2_L_00042001-02
1 30940U 25612MV  26070.40842593  .00000000  00000+0  00000-0 0  9991
2 30940  85.0000   0.0000 0000000   0.0000  90.0000 15.59190035    19
CTC2_L_00042001-03
1 30941U 23242WJ  26070.40842593  .00000000  00000+0  00000-0 0  9999
2 30941  85.0000   0.0000 0000000   0.0000 180.0000 15.59190035    10
CTC2_L_00042001-04
1 30942U 23389UL  26070.40842593  .00000000  00000+0  00000-0 0  9992
2 30942  85.0000   0.0000 0000000   0.0000 270.0000 15.59190035    11
CTC2_L_00042002-01
1 30943U 26496MJ  26070.40842593  .00000000  00000+0  00000-0 0  9995
2 30943  85.0000  12.0000 0000000   0.0000  12.0000 15.59190035    19
CTC2_L_00042002-02
1 30944U 25375AC  26070.40842593  .00000000  00000+0  00000-0 0  9991
2 30944  85.0000  12.0000 0000000   0.0000 102.0000 15.59190035    10
CTC2_L_00042002-03
1 30945U 25272IA  26070.40842593  .00000000  00000+0  00000-0 0  9998
2 30945  85.0000  12.0000 0000000   0.0000 192.0000 15.59190035    10
CTC2_L_00042002-04
1 30946U 24448MT  26070.40842593  .00000000  00000+0  00000-0 0  9993
2 30946  85.0000  12.0000 0000000   0.0000 282.0000 15.59190035    11
CTC2_L_00042003-01
1 30947U 24026YJ  26070.40842593  .00000000  00000+0  00000-0 0  9996
2 30947  85.0000  24.0000 0000000   0.0000  24.0000 15.59190035    19
CTC2_L_00042003-02
1 30948U 24168AJ  26070.40842593  .00000000  00000+0  00000-0 0  9994
2 30948  85.0000  24.0000 0000000   0.0000 114.0000 15.59190035    10
CTC2_L_00042003-03
1 30949U 23857HZ  26070.40842593  .00000000  00000+0  00000-0 0  9999
2 30949  85.0000  24.0000 0000000   0.0000 204.0000 15.59190035    11
CTC2_L_00042003-04
1 30950U 24675XH  26070.40842593  .00000000  00000+0  00000-0 0  9990
2 30950  85.0000  24.0000 0000000   0.0000 294.0000 15.59190035    12
CTC2_L_00042004-01
1 30951U 24043IC  26070.40842593  .00000000  00000+0  00000-0 0  9990
2 30951  85.0000  36.0000 0000000   0.0000  36.0000 15.59190035    10
CTC2_L_00042004-02
1 30952U 25861GJ  26070.40842593  .00000000  00000+0  00000-0 0  9990
2 30952  85.0000  36.0000 0000000   0.0000 126.0000 15.59190035    11
CTC2_L_00042004-03
1 30953U 22299ON  26070.40842593  .00000000  00000+0  00000-0 0  9993
2 30953  85.0000  36.0000 0000000   0.0000 216.0000 15.59190035    12
CTC2_L_00042004-04
1 30954U 23333ZP  26070.40842593  .00000000  00000+0  00000-0 0  9994
2 30954  85.0000  36.0000 0000000   0.0000 306.0000 15.59190035    13
CTC2_L_00042005-01
1 30955U 26770MF  26070.40842593  .00000000  00000+0  00000-0 0  9993
2 30955  85.0000  48.0000 0000000   0.0000  48.0000 15.59190035    10
CTC2_L_00042005-02
1 30956U 22771AV  26070.40842593  .00000000  00000+0  00000-0 0  9991
2 30956  85.0000  48.0000 0000000   0.0000 138.0000 15.59190035    11
CTC2_L_00042005-03
1 30957U 23016WJ  26070.40842593  .00000000  00000+0  00000-0 0  9995
2 30957  85.0000  48.0000 0000000   0.0000 228.0000 15.59190035    12
CTC2_L_00042005-04
1 30958U 22872SV  26070.40842593  .00000000  00000+0  00000-0 0  9995
2 30958  85.0000  48.0000 0000000   0.0000 318.0000 15.59190035    13
CTC2_L_00042006-01
1 30959U 24850XS  26070.40842593  .00000000  00000+0  00000-0 0  9994
2 30959  85.0000  60.0000 0000000   0.0000  60.0000 15.59190035    12
CTC2_L_00042006-02
1 30960U 23244ZR  26070.40842593  .00000000  00000+0  00000-0 0  9992
2 30960  85.0000  60.0000 0000000   0.0000 150.0000 15.59190035    14
CTC2_L_00042006-03
1 30961U 24833ZF  26070.40842593  .00000000  00000+0  00000-0 0  9998
2 30961  85.0000  60.0000 0000000   0.0000 240.0000 15.59190035    15
CTC2_L_00042006-04
1 30962U 25700PG  26070.40842593  .00000000  00000+0  00000-0 0  9993
2 30962  85.0000  60.0000 0000000   0.0000 330.0000 15.59190035    16
CTC2_L_00042007-01
1 30963U 24287BJ  26070.40842593  .00000000  00000+0  00000-0 0  9993
2 30963  85.0000  72.0000 0000000   0.0000  72.0000 15.59190035    13
CTC2_L_00042007-02
1 30964U 22079HV  26070.40842593  .00000000  00000+0  00000-0 0  9991
2 30964  85.0000  72.0000 0000000   0.0000 162.0000 15.59190035    14
CTC2_L_00042007-03
1 30965U 25748RY  26070.40842593  .00000000  00000+0  00000-0 0  9998
2 30965  85.0000  72.0000 0000000   0.0000 252.0000 15.59190035    15
CTC2_L_00042007-04
1 30966U 23017ET  26070.40842593  .00000000  00000+0  00000-0 0  9996
2 30966  85.0000  72.0000 0000000   0.0000 342.0000 15.59190035    16
CTC2_L_00042008-01
1 30967U 25085NB  26070.40842593  .00000000  00000+0  00000-0 0  9994
2 30967  85.0000  84.0000 0000000   0.0000  84.0000 15.59190035    13
CTC2_L_00042008-02
1 30968U 23885BX  26070.40842593  .00000000  00000+0  00000-0 0  9991
2 30968  85.0000  84.0000 0000000   0.0000 174.0000 15.59190035    14
CTC2_L_00042008-03
1 30969U 23542UJ  26070.40842593  .00000000  00000+0  00000-0 0  9992
2 30969  85.0000  84.0000 0000000   0.0000 264.0000 15.59190035    15
CTC2_L_00042008-04
1 30970U 23447TS  26070.40842593  .00000000  00000+0  00000-0 0  9998
2 30970  85.0000  84.0000 0000000   0.0000 354.0000 15.59190035    17
CTC2_L_00042009-01
1 30971U 26743IZ  26070.40842593  .00000000  00000+0  00000-0 0  9991
2 30971  85.0000  96.0000 0000000   0.0000  96.0000 15.59190035    14
CTC2_L_00042009-02
1 30972U 25656DB  26070.40842593  .00000000  00000+0  00000-0 0  9994
2 30972  85.0000  96.0000 0000000   0.0000 186.0000 15.59190035    15
CTC2_L_00042009-03
1 30973U 22123PQ  26070.40842593  .00000000  00000+0  00000-0 0  9991
2 30973  85.0000  96.0000 0000000   0.0000 276.0000 15.59190035    16
CTC2_L_00042009-04
1 30974U 22793RJ  26070.40842593  .00000000  00000+0  00000-0 0  9995
2 30974  85.0000  96.0000 0000000   0.0000   6.0000 15.59190035    18
CTC2_L_00042010-01
1 30975U 22237GP  26070.40842593  .00000000  00000+0  00000-0 0  9999
2 30975  85.0000 108.0000 0000000   0.0000 108.0000 15.59190035    16
CTC2_L_00042010-02
1 30976U 25493SF  26070.40842593  .00000000  00000+0  00000-0 0  9997
2 30976  85.0000 108.0000 0000000   0.0000 198.0000 15.59190035    16
CTC2_L_00042010-03
1 30977U 26330EO  26070.40842593  .00000000  00000+0  00000-0 0  9999
2 30977  85.0000 108.0000 0000000   0.0000 288.0000 15.59190035    17
CTC2_L_00042010-04
1 30978U 23290PO  26070.40842593  .00000000  00000+0  00000-0 0  9992
2 30978  85.0000 108.0000 0000000   0.0000  18.0000 15.59190035    19
CTC2_L_00042011-01
1 30979U 23250EQ  26070.40842593  .00000000  00000+0  00000-0 0  9999
2 30979  85.0000 120.0000 0000000   0.0000 120.0000 15.59190035    18
CTC2_L_00042011-02
1 30980U 22399ER  26070.40842593  .00000000  00000+0  00000-0 0  9994
2 30980  85.0000 120.0000 0000000   0.0000 210.0000 15.59190035    10
CTC2_L_00042011-03
1 30981U 22187WM  26070.40842593  .00000000  00000+0  00000-0 0  9990
2 30981  85.0000 120.0000 0000000   0.0000 300.0000 15.59190035    11
CTC2_L_00042011-04
1 30982U 26922JV  26070.40842593  .00000000  00000+0  00000-0 0  9992
2 30982  85.0000 120.0000 0000000   0.0000  30.0000 15.59190035    12
CTC2_L_00042012-01
1 30983U 24510HO  26070.40842593  .00000000  00000+0  00000-0 0  9994
2 30983  85.0000 132.0000 0000000   0.0000 132.0000 15.59190035    19
CTC2_L_00042012-02
1 30984U 25969BM  26070.40842593  .00000000  00000+0  00000-0 0  9994
2 30984  85.0000 132.0000 0000000   0.0000 222.0000 15.59190035    10
CTC2_L_00042012-03
1 30985U 22191LC  26070.40842593  .00000000  00000+0  00000-0 0  9999
2 30985  85.0000 132.0000 0000000   0.0000 312.0000 15.59190035    11
CTC2_L_00042012-04
1 30986U 22140UD  26070.40842593  .00000000  00000+0  00000-0 0  9994
2 30986  85.0000 132.0000 0000000   0.0000  42.0000 15.59190035    12
CTC2_L_00042013-01
1 30987U 22831OP  26070.40842593  .00000000  00000+0  00000-0 0  9992
2 30987  85.0000 144.0000 0000000   0.0000 144.0000 15.59190035    19
CTC2_L_00042013-02
1 30988U 26483TO  26070.40842593  .00000000  00000+0  00000-0 0  9990
2 30988  85.0000 144.0000 0000000   0.0000 234.0000 15.59190035    10
CTC2_L_00042013-03
1 30989U 26196CD  26070.40842593  .00000000  00000+0  00000-0 0  9992
2 30989  85.0000 144.0000 0000000   0.0000 324.0000 15.59190035    11
CTC2_L_00042013-04
1 30990U 26585GR  26070.40842593  .00000000  00000+0  00000-0 0  9996
2 30990  85.0000 144.0000 0000000   0.0000  54.0000 15.59190035    13
CTC2_L_00042014-01
1 30991U 25683WV  26070.40842593  .00000000  00000+0  00000-0 0  9995
2 30991  85.0000 156.0000 0000000   0.0000 156.0000 15.59190035    10
CTC2_L_00042014-02
1 30992U 25188MN  26070.40842593  .00000000  00000+0  00000-0 0  9996
2 30992  85.0000 156.0000 0000000   0.0000 246.0000 15.59190035    11
CTC2_L_00042014-03
1 30993U 23956ZM  26070.40842593  .00000000  00000+0  00000-0 0  9998
2 30993  85.0000 156.0000 0000000   0.0000 336.0000 15.59190035    12
CTC2_L_00042014-04
1 30994U 23957NR  26070.40842593  .00000000  00000+0  00000-0 0  9990
2 30994  85.0000 156.0000 0000000   0.0000  66.0000 15.59190035    13
CTC2_L_00042015-01
1 30995U 22314IR  26070.40842593  .00000000  00000+0  00000-0 0  9997
2 30995  85.0000 168.0000 0000000   0.0000 168.0000 15.59190035    10
CTC2_L_00042015-02
1 30996U 26210S   26070.40842593  .00000000  00000+0  00000-0 0  9997
2 30996  85.0000 168.0000 0000000   0.0000 258.0000 15.59190035    11
CTC2_L_00042015-03
1 30997U 23481BW  26070.40842593  .00000000  00000+0  00000-0 0  9995
2 30997  85.0000 168.0000 0000000   0.0000 348.0000 15.59190035    12
CTC2_L_00042015-04
1 30998U 24704CO  26070.40842593  .00000000  00000+0  00000-0 0  9995
2 30998  85.0000 168.0000 0000000   0.0000  78.0000 15.59190035    13
CTC2_L_00042016-01
1 30999U 25750KO  26070.40842593  .00000000  00000+0  00000-0 0  9998
2 30999  85.0000 180.0000 0000000   0.0000 180.0000 15.59190035    12
CTC2_L_00042016-02
1 31000U 24092UX  26070.40842593  .00000000  00000+0  00000-0 0  9990
2 31000  85.0000 180.0000 0000000   0.0000 270.0000 15.59190035    16
